QIANFAN-9               
1 60387U 24140J   25254.17776629  .00000075  00000+0  97822-4 0  9991
2 60387  88.9802 308.9220 0018541 104.8436 255.4770 13.50969343 54833
QIANFAN-10              
1 60388U 24140K   25254.18186072  .00000078  00000+0  10129-3 0  9997
2 60388  88.9810 308.2603 0016905  85.0894 275.2186 13.50966787 54965
QIANFAN-11              
1 60389U 24140L   25254.21884875  .00000074  00000+0  96270-4 0  9996
2 60389  88.9738 308.9123 0016566 104.4177 255.8815 13.50967242 54625
QIANFAN-12              
1 60390U 24140M   25254.23936741  .00000069  00000+0  88472-4 0  9999
2 60390  88.9781 308.9131 0015354 111.3244 248.9548 13.50967217 54752
QIANFAN-13              
1 60391U 24140N   25254.21058385  .00000071  00000+0  91236-4 0  9992
2 60391  88.9794 309.0046 0015155 113.6760 246.5983 13.50967241 54777
QIANFAN-14              
1 60392U 24140P   25254.23520626  .00000059  00000+0  73155-4 0  9993
2 60392  88.9772 308.9195 0018842 113.9492 246.3634 13.50968234 54783
QIANFAN-15              
1 60393U 24140Q   25254.24351876  .00000069  00000+0  87512-4 0  9997
2 60393  88.9795 308.8533 0014686 101.7606 258.5194 13.50971658 54777
QIANFAN-16              
1 60394U 24140R   25254.23121646  .00000061  00000+0  75397-4 0  9997
2 60394  88.9799 308.9718 0016731 117.1453 243.1406 13.50967293 54688
